FENGYUN 1C DEB          
1 32180U 99025CUA 17344.35797131  .00000022  00000-0  59508-4 0  9999
2 32180  99.4471 291.6799 0137399 344.5608 167.4268 13.81676363538986
